BEIDOU-2 IGSO-1 (C06)   
1 36828U 10036A   25256.67867069 -.00000134  00000+0  00000+0 0  9993
2 36828  54.2779 165.4672 0048522 216.6182 319.7613  1.00251215 55323
BEIDOU-2 G4 (C04)       
1 37210U 10057A   25257.26031012 -.00000123  00000+0  00000+0 0  9997
2 37210   2.9573  70.2152 0008387 170.3854   6.6647  1.00271113 54523
BEIDOU-2 IGSO-2 (C07)   
1 37256U 10068A   25256.99072652 -.00000172  00000+0  00000+0 0  9997
2 37256  48.0459 275.2517 0048635 216.3004 325.2334  1.00260032 54023
BEIDOU-2 IGSO-3 (C08)   
1 37384U 11013A   25253.89216194 -.00000168  00000+0  00000+0 0  9992
2 37384  62.0196  42.7988 0036015 179.1356 195.1033  1.00292863 52860
BEIDOU-2 IGSO-4 (C09)   
1 37763U 11038A   25251.72474547 -.00000069  00000+0  00000+0 0  9998
2 37763  54.5804 168.2021 0144953 230.7837 303.6652  1.00260805 51823
BEIDOU-2 IGSO-5 (C10)   
1 37948U 11073A   25256.51858260 -.00000121  00000+0  00000+0 0  9991
2 37948  48.1845 274.9649 0110386 221.3820 138.9468  1.00266626 50363
BEIDOU-2 G5 (C05)       
1 38091U 12008A   25257.16887639  .00000044  00000+0  00000+0 0  9997
2 38091   2.8807  71.0075 0006871 227.9600 174.0518  1.00276416 49608
BEIDOU-2 M3 (C11)       
1 38250U 12018A   25255.04439222 -.00000056  00000+0  00000+0 0  9995
2 38250  55.9940 314.2407 0022776 267.9668  91.8413  1.86230256 90762
BEIDOU-2 M4 (C12)       
1 38251U 12018B   25257.12496831 -.00000058  00000+0  00000+0 0  9998
2 38251  55.8950 313.4069 0015043 266.3392  93.5530  1.86231952 90802
BEIDOU-2 M6 (C14)       
1 38775U 12050B   25255.76178323 -.00000005  00000+0  00000+0 0  9998
2 38775  56.2985  72.0838 0011188 357.7217   2.3093  1.86230878 88147
BEIDOU-2 G6 (C02)       
1 38953U 12059A   25257.03112502 -.00000186  00000+0  00000+0 0  9994
2 38953   3.7152  76.4050 0006229 312.2074  59.8933  1.00270878 47144
BEIDOU-3S IGSO-1S (C31) 
1 40549U 15019A   25256.60439703 -.00000147  00000+0  00000+0 0  9991
2 40549  49.7188 298.7940 0041405 196.1569 168.2627  1.00258205 38300
BEIDOU-3S M2S (C58)     
1 40748U 15037A   25257.32931352 -.00000055  00000+0  00000+0 0  9997
2 40748  55.1145 311.5337 0010893 250.5469 109.3989  1.86229046 68989
BEIDOU-3S M1S (C57)     
1 40749U 15037B   25257.03444993 -.00000055  00000+0  00000+0 0  9996
2 40749  55.1110 311.5345 0002401 355.8804   4.1813  1.86253837 68982
BEIDOU-3S IGSO-2S (C56) 
1 40938U 15053A   25256.63994469 -.00000098  00000+0  00000+0 0  9994
2 40938  49.6536 262.0689 0062511 189.3636 225.8407  1.00290253 36585
BEIDOU-2 IGSO-6 (C13)   
1 41434U 16021A   25256.36552899 -.00000149  00000+0  00000+0 0  9996
2 41434  59.8418  40.8010 0056091 227.7226 311.2781  1.00270285 34707
BEIDOU-2 G7 (C03)       
1 41586U 16037A   25257.11164758 -.00000364  00000+0  00000+0 0  9997
2 41586   1.5338  66.5057 0004973 348.5099  89.0236  1.00266907  4122
BEIDOU-3 M1 (C19)       
1 43001U 17069A   25251.23173446  .00000020  00000+0  00000+0 0  9996
2 43001  56.4427  72.3885 0007295 318.6501  41.3515  1.86231139 53357
BEIDOU-3 M2 (C20)       
1 43002U 17069B   25257.07641479 -.00000002  00000+0  00000+0 0  9992
2 43002  56.4476  72.2313 0006054 356.1902   3.8419  1.86230743 53458
BEIDOU-3 M7 (C27)       
1 43107U 18003A   25254.67293549 -.00000053  00000+0  00000+0 0  9997
2 43107  54.5748 312.0169 0002823  98.2271 261.8736  1.86232402 52161
BEIDOU-3 M8 (C28)       
1 43108U 18003B   25256.76489057 -.00000057  00000+0  00000+0 0  9995
2 43108  54.5659 311.9273 0004759 256.3199 103.6905  1.86230865 52211
BEIDOU-3 M4 (C22)       
1 43207U 18018A   25251.83690792  .00000016  00000+0  00000+0 0  9998
2 43207  56.4017  72.4421 0005866  36.7138 323.3798  1.86231041 51506
BEIDOU-3 M3 (C21)       
1 43208U 18018B   25256.19909991 -.00000005  00000+0  00000+0 0  9996
2 43208  56.4062  72.3014 0005540 341.8285  18.1881  1.86230907 51586
BEIDOU-3 M9 (C29)       
1 43245U 18029A   25256.41565507 -.00000052  00000+0  00000+0 0  9997
2 43245  54.4439 309.6180 0002060 232.6410 127.4039  1.86232459 50744
BEIDOU-3 M10 (C30)      
1 43246U 18029B   25254.73916453 -.00000049  00000+0  00000+0 0  9997
2 43246  54.4429 309.7042 0002584   2.4584 357.6112  1.86229041 50694
BEIDOU-2 IGSO-7 (C16)   
1 43539U 18057A   25255.72391655 -.00000140  00000+0  00000+0 0  9996
2 43539  55.1688 165.4696 0092371 236.5621 322.3892  1.00284559 26341
BEIDOU-3 M5 (C23)       
1 43581U 18062A   25253.88998350  .00000039  00000+0  00000+0 0  9995
2 43581  54.0957 191.8008 0004323 298.1043  61.8435  1.86228485 48439
BEIDOU-3 M6 (C24)       
1 43582U 18062B   25256.97532106  .00000008  00000+0  00000+0 0  9998
2 43582  54.0949 191.6851 0005805  20.6901 339.3287  1.86229614 48491
BEIDOU-3 M12 (C26)      
1 43602U 18067A   25253.69036066  .00000038  00000+0  00000+0 0  9999
2 43602  54.1893 190.5192 0008042  29.3415 330.6961  1.86227548 47914
BEIDOU-3 M11 (C25)      
1 43603U 18067B   25257.04640466  .00000005  00000+0  00000+0 0  9992
2 43603  54.1860 190.3697 0004754  17.9865 342.0272  1.86227049 48004
BEIDOU-3 M13 (C32)      
1 43622U 18072A   25255.93007659 -.00000005  00000+0  00000+0 0  9997
2 43622  56.3789  71.8250 0004063 321.7396  38.2673  1.86231108 47497
BEIDOU-3 M14 (C33)      
1 43623U 18072B   25256.33250166 -.00000005  00000+0  00000+0 0  9996
2 43623  56.3812  71.8055 0003544  18.4378 341.6108  1.86231125 47494
BEIDOU-3 M16 (C35)      
1 43647U 18078A   25257.02844634 -.00000052  00000+0  00000+0 0  9996
2 43647  54.3399 309.6579 0005788  22.5740 337.5144  1.86232188 47014
BEIDOU-3 M15 (C34)      
1 43648U 18078B   25257.15763461 -.00000052  00000+0  00000+0 0  9999
2 43648  54.3356 309.6546 0002405  30.2438 329.8330  1.86232205 47038
BEIDOU-3 G1 (C59)       
1 43683U 18085A   25257.32773708 -.00000289  00000+0  00000+0 0  9992
2 43683   2.8806 105.3207 0003646   9.9295 136.3436  1.00273358 25294
BEIDOU-3 M17 (C36)      
1 43706U 18093A   25256.33153825  .00000019  00000+0  00000+0 0  9999
2 43706  54.1788 191.6895 0009003 293.9131 126.9744  1.86228089 46382
BEIDOU-3 M18 (C37)      
1 43707U 18093B   25253.95440441  .00000039  00000+0  00000+0 0  9990
2 43707  54.1801 191.7620 0007594 324.6746  35.2669  1.86229741 46332
BEIDOU-3 IGSO-1 (C38)   
1 44204U 19023A   25255.98711248 -.00000208  00000+0  00000+0 0  9997
2 44204  58.3082  40.5130 0025066 215.8899 210.1579  1.00270891  4430
BEIDOU-2 G8 (C01)       
1 44231U 19027A   25256.86364044 -.00000257  00000+0  00000+0 0  9991
2 44231   1.4295  74.3314 0006621 261.1518 113.0747  1.00271054 23310
BEIDOU-3 IGSO-2 (C39)   
1 44337U 19035A   25247.72162405 -.00000168  00000+0  00000+0 0  9990
2 44337  55.2150 161.3741 0035069 208.7975 349.2962  1.00246132 22801
BEIDOU-3 M24 (C46)      
1 44542U 19061A   25257.24749500  .00000004  00000+0  00000+0 0  9990
2 44542  54.4065 192.0351 0008762   3.1593 356.8404  1.86229280 40653
BEIDOU-3 M23 (C45)      
1 44543U 19061B   25256.33962389  .00000019  00000+0  00000+0 0  9998
2 44543  54.4050 192.0340 0005700 348.6519  35.4617  1.86229321 40641
BEIDOU-3 IGSO-3 (C40)   
1 44709U 19073A   25256.47781412 -.00000162  00000+0  00000+0 0  9996
2 44709  55.2756 283.8890 0045585 191.7000 168.2513  1.00271462 21685
BEIDOU-3 M22 (C44)      
1 44793U 19078A   25257.08877872 -.00000052  00000+0  00000+0 0  9996
2 44793  54.1862 309.5320 0004482  29.9864 330.1021  1.86232053 39500
BEIDOU-3 M21 (C43)      
1 44794U 19078B   25255.07654122 -.00000050  00000+0  00000+0 0  9993
2 44794  54.1603 309.5696 0002644  20.9091 339.1685  1.86227677 39478
BEIDOU-3 M19 (C41)      
1 44864U 19090A   25252.63294242  .00000009  00000+0  00000+0 0  9990
2 44864  56.3101  72.0806 0015410 288.3631  68.3116  1.86231390 39009
BEIDOU-3 M20 (C42)      
1 44865U 19090B   25256.52925218 -.00000005  00000+0  00000+0 0  9994
2 44865  56.3162  71.9852 0012959 303.8211 234.7517  1.86231222 39062
BEIDOU-3 G2 (C60)       
1 45344U 20017A   25257.17907094 -.00000152  00000+0  00000+0 0  9995
2 45344   2.8311  42.0410 0001250 280.2636 175.6078  1.00270687 20493
BEIDOU-3 G3 (C61)       
1 45807U 20040A   25257.25051675 -.00000366  00000+0  00000+0 0  9996
2 45807   1.7700  65.5590 0004234 330.4456 158.2289  1.00273551 19301
BEIDOU-3 G4 (C62)       
1 56564U 23066A   25257.18898314 -.00000123  00000+0  00000+0 0  9991
2 56564   1.0196 296.0444 0005897 213.7170  71.7521  1.00271421  8621
BEIDOU-3 M28 (C50)      
1 58654U 23207A   25255.69238534 -.00000008  00000+0  00000+0 0  9998
2 58654  55.5031  71.6816 0000591  48.9313 311.1098  1.86229772 11673
BEIDOU-3 M26 (C48)      
1 58655U 23207B   25256.02774451 -.00000008  00000+0  00000+0 0  9990
2 58655  55.5056  71.6563 0000997 231.1651 128.8617  1.86231403 11664
BEIDOU-3 M25 (C47)      
1 61186U 24168B   25255.31433530 -.00000054  00000+0  00000+0 0  9992
2 61186  54.7193 311.8888 0004898 278.6691  80.2997  1.86229795  6604
BEIDOU-3 M27 (C49)      
1 61187U 24168C   25256.99882347 -.00000056  00000+0  00000+0 0  9994
2 61187  54.7133 311.8141 0001075 300.9166 242.3154  1.86229878  4113
